start=new Date('2023-03-26T00:00:00.000Z').valueOf();
sats=[{"BSTAR":"0.00341260000000","MEAN_ELEMENT_THEORY":"SGP4","TIME_SYSTEM":"UTC","REV_AT_EPOCH":"130","SITE":"AFETR","CENTER_NAME":"EARTH","MEAN_MOTION":"15.04456024","CLASSIFICATION_TYPE":"U","PERIAPSIS":"552.175","RCS_SIZE":"LARGE","FILE":"3871104","COUNTRY_CODE":"US","SEMIMAJOR_AXIS":"6931.313","NORAD_CAT_ID":"55490","MEAN_ANOMALY":"341.6205","OBJECT_NAME":"STARLINK-5373","EPHEMERIS_TYPE":"0","TLE_LINE2":"2 55490  43.0004  85.9390 0001447 270.3671 341.6205 15.04456024  1308","LAUNCH_DATE":"2023-02-02","MEAN_MOTION_DDOT":"0.0000000000000","ARG_OF_PERICENTER":"270.3671","EPOCH":"2023-03-25T22:00:00.999936","DECAY_DATE":null,"OBJECT_ID":"2023-015AT","ELEMENT_SET_NO":"999","OBJECT_TYPE":"PAYLOAD","MEAN_MOTION_DOT":"0.00048649","APOAPSIS":"554.181","ECCENTRICITY":"0.00014470","PERIOD":"95.716","REF_FRAME":"TEME","RA_OF_ASC_NODE":"85.9390","INCLINATION":"43.0004","TLE_LINE1":"1 55490U 23015AT  23084.91667824  .00048649  00000-0  34126-2 0  9993","GP_ID":"228873463"},{"REV_AT_EPOCH":"819","SITE":"AFETR","TIME_SYSTEM":"UTC","MEAN_ELEMENT_THEORY":"SGP4","BSTAR":"0.00001538300000","PERIAPSIS":"354.052","FILE":"3871104","RCS_SIZE":"LARGE","MEAN_MOTION":"15.71337612","CLASSIFICATION_TYPE":"U","CENTER_NAME":"EARTH","SEMIMAJOR_AXIS":"6733.210","NORAD_CAT_ID":"55491","COUNTRY_CODE":"US","EPHEMERIS_TYPE":"0","MEAN_ANOMALY":"114.2644","OBJECT_NAME":"STARLINK-5364","MEAN_MOTION_DDOT":"0.0000000000000","LAUNCH_DATE":"2023-02-02","TLE_LINE2":"2 55491  43.0012  80.7060 0001519 245.8065 114.2644 15.71337612  8199","ELEMENT_SET_NO":"999","OBJECT_ID":"2023-015AU","DECAY_DATE":null,"EPOCH":"2023-03-25T09:22:07.856544","ARG_OF_PERICENTER":"245.8065","PERIOD":"91.642","ECCENTRICITY":"0.00015190","APOAPSIS":"356.098","OBJECT_TYPE":"PAYLOAD","MEAN_MOTION_DOT":"0.00001564","GP_ID":"228873713","RA_OF_ASC_NODE":"80.7060","INCLINATION":"43.0012","TLE_LINE1":"1 55491U 23015AU  23084.39036871  .00001564  00000-0  15383-4 0  9999","REF_FRAME":"TEME"},{"EPHEMERIS_TYPE":"0","MEAN_ANOMALY":"290.5167","OBJECT_NAME":"STARLINK-5013","SEMIMAJOR_AXIS":"6931.263","NORAD_CAT_ID":"55492","COUNTRY_CODE":"US","PERIAPSIS":"551.908","RCS_SIZE":"LARGE","FILE":"3871104","MEAN_MOTION":"15.04472360","CLASSIFICATION_TYPE":"U","CENTER_NAME":"EARTH","REV_AT_EPOCH":"130","SITE":"AFETR","MEAN_ELEMENT_THEORY":"SGP4","TIME_SYSTEM":"UTC","BSTAR":"0.00308500000000","GP_ID":"228874465","INCLINATION":"43.0002","RA_OF_ASC_NODE":"86.0857","TLE_LINE1":"1 55492U 23015AV  23084.91667824  .00043949  00000-0  30850-2 0  9993","REF_FRAME":"TEME","ECCENTRICITY":"0.00017600","PERIOD":"95.715","APOAPSIS":"554.348","MEAN_MOTION_DOT":"0.00043949","OBJECT_TYPE":"PAYLOAD","ELEMENT_SET_NO":"999","OBJECT_ID":"2023-015AV","DECAY_DATE":null,"ARG_OF_PERICENTER":"260.3326","EPOCH":"2023-03-25T22:00:00.999936","MEAN_MOTION_DDOT":"0.0000000000000","LAUNCH_DATE":"2023-02-02","TLE_LINE2":"2 55492  43.0002  86.0857 0001760 260.3326 290.5167 15.04472360  1302"},{"MEAN_MOTION_DDOT":"0.0000000000000","TLE_LINE2":"2 55493  43.0002  86.0665 0001582 264.9702 293.7021 15.04466902  1309","LAUNCH_DATE":"2023-02-02","OBJECT_ID":"2023-015AW","ELEMENT_SET_NO":"999","ARG_OF_PERICENTER":"264.9702","EPOCH":"2023-03-25T22:00:00.999936","DECAY_DATE":null,"APOAPSIS":"554.241","PERIOD":"95.715","ECCENTRICITY":"0.00015820","MEAN_MOTION_DOT":"0.00041837","OBJECT_TYPE":"PAYLOAD","TLE_LINE1":"1 55493U 23015AW  23084.91667824  .00041837  00000-0  29388-2 0  9992","RA_OF_ASC_NODE":"86.0665","INCLINATION":"43.0002","GP_ID":"228875216","REF_FRAME":"TEME","REV_AT_EPOCH":"130","SITE":"AFETR","BSTAR":"0.00293880000000","TIME_SYSTEM":"UTC","MEAN_ELEMENT_THEORY":"SGP4","CLASSIFICATION_TYPE":"U","MEAN_MOTION":"15.04466902","FILE":"3871104","RCS_SIZE":"LARGE","PERIAPSIS":"552.048","CENTER_NAME":"EARTH","NORAD_CAT_ID":"55493","SEMIMAJOR_AXIS":"6931.280","COUNTRY_CODE":"US","OBJECT_NAME":"STARLINK-5362","MEAN_ANOMALY":"293.7021","EPHEMERIS_TYPE":"0"},{"GP_ID":"228873964","INCLINATION":"43.0003","RA_OF_ASC_NODE":"85.9294","TLE_LINE1":"1 55494U 23015AX  23084.91667824  .00043365  00000-0  30452-2 0  9995","REF_FRAME":"TEME","PERIOD":"95.715","ECCENTRICITY":"0.00012390","APOAPSIS":"554.013","MEAN_MOTION_DOT":"0.00043365","OBJECT_TYPE":"PAYLOAD","ELEMENT_SET_NO":"999","OBJECT_ID":"2023-015AX","DECAY_DATE":null,"ARG_OF_PERICENTER":"257.4028","EPOCH":"2023-03-25T22:00:00.999936","MEAN_MOTION_DDOT":"0.0000000000000","LAUNCH_DATE":"2023-02-02","TLE_LINE2":"2 55494  43.0003  85.9294 0001239 257.4028 358.5096 15.04463894  1303","EPHEMERIS_TYPE":"0","MEAN_ANOMALY":"358.5096","OBJECT_NAME":"STARLINK-5344","SEMIMAJOR_AXIS":"6931.289","NORAD_CAT_ID":"55494","COUNTRY_CODE":"US","PERIAPSIS":"552.295","FILE":"3871104","RCS_SIZE":"LARGE","CLASSIFICATION_TYPE":"U","MEAN_MOTION":"15.04463894","CENTER_NAME":"EARTH","REV_AT_EPOCH":"130","SITE":"AFETR","TIME_SYSTEM":"UTC","MEAN_ELEMENT_THEORY":"SGP4","BSTAR":"0.00304520000000"},{"REF_FRAME":"TEME","INCLINATION":"43.0011","RA_OF_ASC_NODE":"80.7342","TLE_LINE1":"1 55495U 23015AY  23084.39264740 -.00002179  00000-0 -13202-4 0  9994","GP_ID":"228874214","MEAN_MOTION_DOT":"-0.00002179","OBJECT_TYPE":"PAYLOAD","APOAPSIS":"355.946","PERIOD":"91.643","ECCENTRICITY":"0.00012110","ARG_OF_PERICENTER":"307.1771","EPOCH":"2023-03-25T09:25:24.735360","DECAY_DATE":null,"OBJECT_ID":"2023-015AY","ELEMENT_SET_NO":"999","TLE_LINE2":"2 55495  43.0011  80.7342 0001211 307.1771  52.8986 15.71318125  8194","LAUNCH_DATE":"2023-02-02","MEAN_MOTION_DDOT":"0.0000000000000","MEAN_ANOMALY":"52.8986","OBJECT_NAME":"STARLINK-5100","EPHEMERIS_TYPE":"0","COUNTRY_CODE":"US","SEMIMAJOR_AXIS":"6733.266","NORAD_CAT_ID":"55495","CENTER_NAME":"EARTH","CLASSIFICATION_TYPE":"U","MEAN_MOTION":"15.71318125","PERIAPSIS":"354.315","FILE":"3871104","RCS_SIZE":"LARGE","BSTAR":"-0.00001320200000","TIME_SYSTEM":"UTC","MEAN_ELEMENT_THEORY":"SGP4","SITE":"AFETR","REV_AT_EPOCH":"819"},{"MEAN_ANOMALY":"209.8903","OBJECT_NAME":"STARLINK-5139","EPHEMERIS_TYPE":"0","NORAD_CAT_ID":"55496","SEMIMAJOR_AXIS":"6740.106","COUNTRY_CODE":"US","MEAN_MOTION":"15.68926723","CLASSIFICATION_TYPE":"U","PERIAPSIS":"360.347","RCS_SIZE":"LARGE","FILE":"3871104","CENTER_NAME":"EARTH","SITE":"AFETR","REV_AT_EPOCH":"818","BSTAR":"0.00086484000000","MEAN_ELEMENT_THEORY":"SGP4","TIME_SYSTEM":"UTC","INCLINATION":"42.9996","RA_OF_ASC_NODE":"81.7680","TLE_LINE1":"1 55496U 23015AZ  23084.41054866  .00103328  00000-0  86484-3 0  9991","GP_ID":"228874966","REF_FRAME":"TEME","APOAPSIS":"363.595","PERIOD":"91.782","ECCENTRICITY":"0.00024100","MEAN_MOTION_DOT":"0.00103328","OBJECT_TYPE":"PAYLOAD","OBJECT_ID":"2023-015AZ","ELEMENT_SET_NO":"999","EPOCH":"2023-03-25T09:51:11.404224","ARG_OF_PERICENTER":"150.2101","DECAY_DATE":null,"MEAN_MOTION_DDOT":"0.0000000000000","TLE_LINE2":"2 55496  42.9996  81.7680 0002410 150.2101 209.8903 15.68926723  8184","LAUNCH_DATE":"2023-02-02"},{"APOAPSIS":"554.180","ECCENTRICITY":"0.00014840","PERIOD":"95.715","MEAN_MOTION_DOT":"0.00048510","OBJECT_TYPE":"PAYLOAD","INCLINATION":"43.0003","RA_OF_ASC_NODE":"85.9097","TLE_LINE1":"1 55497U 23015BA  23084.91667824  .00048510  00000-0  34022-2 0  9992","GP_ID":"228874716","REF_FRAME":"TEME","MEAN_MOTION_DDOT":"0.0000000000000","TLE_LINE2":"2 55497  43.0003  85.9097 0001484 257.2680   6.7869 15.04464710  1309","LAUNCH_DATE":"2023-02-02","OBJECT_ID":"2023-015BA","ELEMENT_SET_NO":"999","ARG_OF_PERICENTER":"257.2680","EPOCH":"2023-03-25T22:00:00.999936","DECAY_DATE":null,"NORAD_CAT_ID":"55497","SEMIMAJOR_AXIS":"6931.286","COUNTRY_CODE":"US","MEAN_ANOMALY":"6.7869","OBJECT_NAME":"STARLINK-5363","EPHEMERIS_TYPE":"0","REV_AT_EPOCH":"130","SITE":"AFETR","BSTAR":"0.00340220000000","MEAN_ELEMENT_THEORY":"SGP4","TIME_SYSTEM":"UTC","MEAN_MOTION":"15.04464710","CLASSIFICATION_TYPE":"U","PERIAPSIS":"552.123","FILE":"3871104","RCS_SIZE":"LARGE","CENTER_NAME":"EARTH"},{"TLE_LINE1":"1 55498U 23015BB  23084.91667824 -.00792652  00000-0 -59288-1 0  9998","RA_OF_ASC_NODE":"85.7430","INCLINATION":"43.0008","GP_ID":"228873464","REF_FRAME":"TEME","APOAPSIS":"553.435","PERIOD":"95.700","ECCENTRICITY":"0.00014520","OBJECT_TYPE":"PAYLOAD","MEAN_MOTION_DOT":"-0.00792652","OBJECT_ID":"2023-015BB","ELEMENT_SET_NO":"999","ARG_OF_PERICENTER":"257.3337","EPOCH":"2023-03-25T22:00:00.999936","DECAY_DATE":null,"MEAN_MOTION_DDOT":"0.0000000000000","TLE_LINE2":"2 55498  43.0008  85.7430 0001452 257.3337  76.3297 15.04699978  1303","LAUNCH_DATE":"2023-02-02","OBJECT_NAME":"STARLINK-5365","MEAN_ANOMALY":"76.3297","EPHEMERIS_TYPE":"0","NORAD_CAT_ID":"55498","SEMIMAJOR_AXIS":"6930.564","COUNTRY_CODE":"US","MEAN_MOTION":"15.04699978","CLASSIFICATION_TYPE":"U","FILE":"3871104","RCS_SIZE":"LARGE","PERIAPSIS":"551.422","CENTER_NAME":"EARTH","REV_AT_EPOCH":"130","SITE":"AFETR","BSTAR":"-0.05928800000000","MEAN_ELEMENT_THEORY":"SGP4","TIME_SYSTEM":"UTC"},{"MEAN_ELEMENT_THEORY":"SGP4","TIME_SYSTEM":"UTC","BSTAR":"-0.02303900000000","REV_AT_EPOCH":"130","SITE":"AFETR","CENTER_NAME":"EARTH","RCS_SIZE":"LARGE","FILE":"3871104","PERIAPSIS":"551.557","CLASSIFICATION_TYPE":"U","MEAN_MOTION":"15.04579678","COUNTRY_CODE":"US","SEMIMAJOR_AXIS":"6930.933","NORAD_CAT_ID":"55499","EPHEMERIS_TYPE":"0","OBJECT_NAME":"STARLINK-5366","MEAN_ANOMALY":"104.2724","LAUNCH_DATE":"2023-02-02","TLE_LINE2":"2 55499  43.0005  85.6727 0001791 258.6917 104.2724 15.04579678  1303","MEAN_MOTION_DDOT":"0.0000000000000","DECAY_DATE":null,"EPOCH":"2023-03-25T22:00:00.999936","ARG_OF_PERICENTER":"258.6917","ELEMENT_SET_NO":"999","OBJECT_ID":"2023-015BC","MEAN_MOTION_DOT":"-0.00314618","OBJECT_TYPE":"PAYLOAD","PERIOD":"95.708","ECCENTRICITY":"0.00017910","APOAPSIS":"554.040","REF_FRAME":"TEME","GP_ID":"228873714","TLE_LINE1":"1 55499U 23015BC  23084.91667824 -.00314618  00000-0 -23039-1 0  9996","RA_OF_ASC_NODE":"85.6727","INCLINATION":"43.0005"}];
